; Unified support-aware Euler / Open CPP stent toolpath
; pattern = square
; algorithm = EULER_CIRCUIT
; nodes = 60 ; original_edges = 100
; odd_nodes = 0
; duplicated_edge_traversals = 0
; retract_count = 0
; diameter_mm = 8.000000
; stent_length_mm = 20.000000
; IMPORTANT: Generic rotary A/Z post-processor. Verify axis sign, zero, units,
; extrusion calibration, nozzle-mandrel gap, and controller semantics before use.
G21 ; millimeters
G90 ; absolute positioning
M82 ; absolute extrusion
G92 E0
G0 A0.000000 Z18.000017 ; initial positioning only
G1 A35.999695 Z16.000034 E0.160243 F600.0 ; step 1 node 49->44 UNSUPPORTED
G1 A72.000407 Z13.999994 E0.320490 F600.0 ; step 2 node 44->39 UNSUPPORTED
G1 A108.000102 Z12.000011 E0.480733 F600.0 ; step 3 node 39->34 UNSUPPORTED
G1 A143.999796 Z10.000028 E0.640976 F600.0 ; step 4 node 34->29 UNSUPPORTED
G1 A180.000509 Z7.999989 E0.801223 F600.0 ; step 5 node 29->24 UNSUPPORTED
G1 A216.000204 Z6.000006 E0.961466 F600.0 ; step 6 node 24->19 UNSUPPORTED
G1 A251.999898 Z4.000023 E1.121709 F600.0 ; step 7 node 19->14 UNSUPPORTED
G1 A288.000611 Z1.999983 E1.281957 F600.0 ; step 8 node 14->9 UNSUPPORTED
G1 A324.000305 Z0.000000 E1.442200 F600.0 ; step 9 node 9->4 UNSUPPORTED
G1 A360.000000 Z1.999983 E1.602442 F600.0 ; step 10 node 4->10 UNSUPPORTED
G1 A324.000305 Z4.000023 E1.762687 F600.0 ; step 11 node 10->15 UNSUPPORTED
G1 A288.000611 Z6.000006 E1.922930 F600.0 ; step 12 node 15->20 UNSUPPORTED
G1 A251.999898 Z4.000023 E2.083176 F600.0 ; step 13 node 20->14 STRONG_INTERSECTION
G1 A216.000204 Z1.999983 E2.243420 F600.0 ; step 14 node 14->8 STRONG_INTERSECTION
G1 A180.000509 Z0.000000 E2.403663 F600.0 ; step 15 node 8->2 UNSUPPORTED
G1 A143.999796 Z1.999983 E2.563909 F600.0 ; step 16 node 2->7 UNSUPPORTED
G1 A108.000102 Z4.000023 E2.724153 F600.0 ; step 17 node 7->12 UNSUPPORTED
G1 A72.000407 Z6.000006 E2.884396 F600.0 ; step 18 node 12->17 UNSUPPORTED
G1 A35.999695 Z7.999989 E3.044642 F600.0 ; step 19 node 17->22 UNSUPPORTED
G1 A0.000000 Z10.000028 E3.204887 F600.0 ; step 20 node 22->27 UNSUPPORTED
G1 A35.999695 Z12.000011 E3.365130 F600.0 ; step 21 node 27->33 UNSUPPORTED
G1 A72.000407 Z13.999994 E3.525375 F600.0 ; step 22 node 33->39 STRONG_INTERSECTION
G1 A108.000102 Z16.000034 E3.685620 F600.0 ; step 23 node 39->45 STRONG_INTERSECTION
G1 A143.999796 Z18.000017 E3.845863 F600.0 ; step 24 node 45->51 UNSUPPORTED
G1 A180.000509 Z20.000000 E4.006108 F600.0 ; step 25 node 51->57 UNSUPPORTED
G1 A216.000204 Z18.000017 E4.166351 F600.0 ; step 26 node 57->52 UNSUPPORTED
G1 A251.999898 Z16.000034 E4.326594 F600.0 ; step 27 node 52->47 UNSUPPORTED
G1 A288.000611 Z13.999994 E4.486842 F600.0 ; step 28 node 47->42 UNSUPPORTED
G1 A324.000305 Z12.000011 E4.647084 F600.0 ; step 29 node 42->37 UNSUPPORTED
G1 A360.000000 Z10.000028 E4.807327 F600.0 ; step 30 node 37->32 UNSUPPORTED
G1 A324.000305 Z7.999989 E4.967572 F600.0 ; step 31 node 32->26 UNSUPPORTED
G1 A288.000611 Z6.000006 E5.127815 F600.0 ; step 32 node 26->20 CONTACT_SUPPORT
G1 A251.999898 Z7.999989 E5.288061 F600.0 ; step 33 node 20->25 CONTACT_SUPPORT
G1 A216.000204 Z10.000028 E5.448305 F600.0 ; step 34 node 25->30 UNSUPPORTED
G1 A251.999898 Z12.000011 E5.608548 F600.0 ; step 35 node 30->36 UNSUPPORTED
G1 A288.000611 Z13.999994 E5.768794 F600.0 ; step 36 node 36->42 STRONG_INTERSECTION
G1 A324.000305 Z16.000034 E5.929038 F600.0 ; step 37 node 42->48 STRONG_INTERSECTION
G1 A288.000611 Z18.000017 E6.089281 F600.0 ; step 38 node 48->53 UNSUPPORTED
G1 A251.999898 Z20.000000 E6.249527 F600.0 ; step 39 node 53->58 UNSUPPORTED
G1 A216.000204 Z18.000017 E6.409770 F600.0 ; step 40 node 58->52 STRONG_INTERSECTION
G1 A180.000509 Z16.000034 E6.570013 F600.0 ; step 41 node 52->46 STRONG_INTERSECTION
G1 A143.999796 Z13.999994 E6.730260 F600.0 ; step 42 node 46->40 UNSUPPORTED
G1 A108.000102 Z12.000011 E6.890503 F600.0 ; step 43 node 40->34 STRONG_INTERSECTION
G1 A72.000407 Z10.000028 E7.050746 F600.0 ; step 44 node 34->28 STRONG_INTERSECTION
G1 A35.999695 Z7.999989 E7.210993 F600.0 ; step 45 node 28->22 STRONG_INTERSECTION
G1 A0.000000 Z6.000006 E7.371236 F600.0 ; step 46 node 22->16 STRONG_INTERSECTION
G1 A35.999695 Z4.000023 E7.531479 F600.0 ; step 47 node 16->11 UNSUPPORTED
G1 A72.000407 Z1.999983 E7.691727 F600.0 ; step 48 node 11->6 UNSUPPORTED
G1 A108.000102 Z0.000000 E7.851969 F600.0 ; step 49 node 6->1 UNSUPPORTED
G1 A143.999796 Z1.999983 E8.012212 F600.0 ; step 50 node 1->7 STRONG_INTERSECTION
G1 A180.000509 Z4.000023 E8.172460 F600.0 ; step 51 node 7->13 STRONG_INTERSECTION
G1 A216.000204 Z6.000006 E8.332703 F600.0 ; step 52 node 13->19 STRONG_INTERSECTION
G1 A251.999898 Z7.999989 E8.492945 F600.0 ; step 53 node 19->25 STRONG_INTERSECTION
G1 A288.000611 Z10.000028 E8.653193 F600.0 ; step 54 node 25->31 STRONG_INTERSECTION
G1 A324.000305 Z12.000011 E8.813436 F600.0 ; step 55 node 31->37 STRONG_INTERSECTION
G1 A360.000000 Z13.999994 E8.973679 F600.0 ; step 56 node 37->43 STRONG_INTERSECTION
G1 A324.000305 Z16.000034 E9.133923 F600.0 ; step 57 node 43->48 CONTACT_SUPPORT
G1 A360.000000 Z18.000017 E9.294166 F600.0 ; step 58 node 48->54 CONTACT_SUPPORT
G1 A324.000305 Z20.000000 E9.454409 F600.0 ; step 59 node 54->59 UNSUPPORTED
G1 A288.000611 Z18.000017 E9.614652 F600.0 ; step 60 node 59->53 STRONG_INTERSECTION
G1 A251.999898 Z16.000034 E9.774898 F600.0 ; step 61 node 53->47 STRONG_INTERSECTION
G1 A216.000204 Z13.999994 E9.935142 F600.0 ; step 62 node 47->41 STRONG_INTERSECTION
G1 A180.000509 Z12.000011 E10.095385 F600.0 ; step 63 node 41->35 UNSUPPORTED
G1 A143.999796 Z10.000028 E10.255631 F600.0 ; step 64 node 35->29 STRONG_INTERSECTION
G1 A108.000102 Z7.999989 E10.415875 F600.0 ; step 65 node 29->23 STRONG_INTERSECTION
G1 A72.000407 Z6.000006 E10.576118 F600.0 ; step 66 node 23->17 STRONG_INTERSECTION
G1 A35.999695 Z4.000023 E10.736364 F600.0 ; step 67 node 17->11 STRONG_INTERSECTION
G1 A0.000000 Z1.999983 E10.896609 F600.0 ; step 68 node 11->5 STRONG_INTERSECTION
G1 A35.999695 Z0.000000 E11.056852 F600.0 ; step 69 node 5->0 UNSUPPORTED
G1 A72.000407 Z1.999983 E11.217097 F600.0 ; step 70 node 0->6 STRONG_INTERSECTION
G1 A108.000102 Z4.000023 E11.377342 F600.0 ; step 71 node 6->12 STRONG_INTERSECTION
G1 A143.999796 Z6.000006 E11.537585 F600.0 ; step 72 node 12->18 STRONG_INTERSECTION
G1 A180.000509 Z4.000023 E11.697830 F600.0 ; step 73 node 18->13 STRONG_INTERSECTION
G1 A216.000204 Z1.999983 E11.858075 F600.0 ; step 74 node 13->8 STRONG_INTERSECTION
G1 A251.999898 Z0.000000 E12.018318 F600.0 ; step 75 node 8->3 STRONG_INTERSECTION
G1 A288.000611 Z1.999983 E12.178564 F600.0 ; step 76 node 3->9 STRONG_INTERSECTION
G1 A324.000305 Z4.000023 E12.338808 F600.0 ; step 77 node 9->15 STRONG_INTERSECTION
G1 A360.000000 Z6.000006 E12.499051 F600.0 ; step 78 node 15->21 STRONG_INTERSECTION
G1 A324.000305 Z7.999989 E12.659294 F600.0 ; step 79 node 21->26 STRONG_INTERSECTION
G1 A288.000611 Z10.000028 E12.819539 F600.0 ; step 80 node 26->31 STRONG_INTERSECTION
G1 A251.999898 Z12.000011 E12.979784 F600.0 ; step 81 node 31->36 STRONG_INTERSECTION
G1 A216.000204 Z13.999994 E13.140027 F600.0 ; step 82 node 36->41 STRONG_INTERSECTION
G1 A180.000509 Z16.000034 E13.300272 F600.0 ; step 83 node 41->46 STRONG_INTERSECTION
G1 A143.999796 Z18.000017 E13.460518 F600.0 ; step 84 node 46->51 STRONG_INTERSECTION
G1 A108.000102 Z20.000000 E13.620760 F600.0 ; step 85 node 51->56 STRONG_INTERSECTION
G1 A72.000407 Z18.000017 E13.781003 F600.0 ; step 86 node 56->50 UNSUPPORTED
G1 A35.999695 Z16.000034 E13.941249 F600.0 ; step 87 node 50->44 STRONG_INTERSECTION
G1 A0.000000 Z13.999994 E14.101494 F600.0 ; step 88 node 44->38 STRONG_INTERSECTION
G1 A35.999695 Z12.000011 E14.261736 F600.0 ; step 89 node 38->33 STRONG_INTERSECTION
G1 A72.000407 Z10.000028 E14.421982 F600.0 ; step 90 node 33->28 STRONG_INTERSECTION
G1 A108.000102 Z7.999989 E14.582227 F600.0 ; step 91 node 28->23 STRONG_INTERSECTION
G1 A143.999796 Z6.000006 E14.742470 F600.0 ; step 92 node 23->18 STRONG_INTERSECTION
G1 A180.000509 Z7.999989 E14.902715 F600.0 ; step 93 node 18->24 STRONG_INTERSECTION
G1 A216.000204 Z10.000028 E15.062960 F600.0 ; step 94 node 24->30 STRONG_INTERSECTION
G1 A180.000509 Z12.000011 E15.223203 F600.0 ; step 95 node 30->35 STRONG_INTERSECTION
G1 A143.999796 Z13.999994 E15.383449 F600.0 ; step 96 node 35->40 STRONG_INTERSECTION
G1 A108.000102 Z16.000034 E15.543693 F600.0 ; step 97 node 40->45 STRONG_INTERSECTION
G1 A72.000407 Z18.000017 E15.703936 F600.0 ; step 98 node 45->50 STRONG_INTERSECTION
G1 A35.999695 Z20.000000 E15.864182 F600.0 ; step 99 node 50->55 STRONG_INTERSECTION
G1 A0.000000 Z18.000017 E16.024425 F600.0 ; step 100 node 55->49 CONTACT_SUPPORT
; END - no retract commands were emitted
M400
