; Unified support-aware Euler / Open CPP stent toolpath
; pattern = reentrant
; algorithm = OPEN_CHINESE_POSTMAN
; nodes = 72 ; original_edges = 96
; odd_nodes = 48
; duplicated_edge_traversals = 23
; retract_count = 0
; diameter_mm = 8.000000
; stent_length_mm = 20.000000
; IMPORTANT: Generic rotary A/Z post-processor. Verify axis sign, zero, units,
; extrusion calibration, nozzle-mandrel gap, and controller semantics before use.
G21 ; millimeters
G90 ; absolute positioning
M82 ; absolute extrusion
G92 E0
G0 A360.000000 Z15.000000 ; initial positioning only
G1 A288.712871 Z15.000000 E0.248293 F600.0 ; step 1 node 55->54 UNSUPPORTED
G1 A310.099010 Z12.500000 E0.393568 F600.0 ; step 2 node 54->46 DUPLICATE|OVERPRINT
G1 A288.712871 Z10.000000 E0.538843 F600.0 ; step 3 node 46->38 UNSUPPORTED
G1 A360.000000 Z10.000000 E0.787136 F600.0 ; step 4 node 38->39 DUPLICATE|OVERPRINT
G1 A288.712871 Z10.000000 E1.035428 F600.0 ; step 5 node 39->38 CONTACT_SUPPORT
G1 A310.099010 Z7.500000 E1.180703 F600.0 ; step 6 node 38->30 CONTACT_SUPPORT
G1 A242.376238 Z7.500000 E1.416581 F600.0 ; step 7 node 30->29 DUPLICATE|OVERPRINT
G1 A310.099010 Z7.500000 E1.652459 F600.0 ; step 8 node 29->30 CONTACT_SUPPORT
G1 A288.712871 Z5.000000 E1.797734 F600.0 ; step 9 node 30->22 CONTACT_SUPPORT
G1 A360.000000 Z5.000000 E2.046027 F600.0 ; step 10 node 22->23 DUPLICATE|OVERPRINT
G1 A288.712871 Z5.000000 E2.294320 F600.0 ; step 11 node 23->22 CONTACT_SUPPORT
G1 A310.099010 Z2.500000 E2.439595 F600.0 ; step 12 node 22->14 CONTACT_SUPPORT
G1 A242.376238 Z2.500000 E2.675473 F600.0 ; step 13 node 14->13 UNSUPPORTED
G1 A310.099010 Z2.500000 E2.911351 F600.0 ; step 14 node 13->14 DUPLICATE|OVERPRINT
G1 A288.712871 Z0.000000 E3.056626 F600.0 ; step 15 node 14->6 CONTACT_SUPPORT
G1 A360.000000 Z0.000000 E3.304918 F600.0 ; step 16 node 6->7 UNSUPPORTED
G1 A338.613861 Z2.500000 E3.450194 F600.0 ; step 17 node 7->15 UNSUPPORTED
G1 A360.000000 Z5.000000 E3.595469 F600.0 ; step 18 node 15->23 CONTACT_SUPPORT
G1 A338.613861 Z7.500000 E3.740744 F600.0 ; step 19 node 23->31 CONTACT_SUPPORT
G1 A360.000000 Z10.000000 E3.886019 F600.0 ; step 20 node 31->39 CONTACT_SUPPORT
G1 A338.613861 Z12.500000 E4.031294 F600.0 ; step 21 node 39->47 CONTACT_SUPPORT
G1 A360.000000 Z15.000000 E4.176570 F600.0 ; step 22 node 47->55 CONTACT_SUPPORT
G1 A338.613861 Z17.500000 E4.321845 F600.0 ; step 23 node 55->63 CONTACT_SUPPORT
G1 A360.000000 Z20.000000 E4.467120 F600.0 ; step 24 node 63->71 UNSUPPORTED
G1 A288.712871 Z20.000000 E4.715413 F600.0 ; step 25 node 71->70 UNSUPPORTED
G1 A310.099010 Z17.500000 E4.860688 F600.0 ; step 26 node 70->62 UNSUPPORTED
G1 A242.376238 Z17.500000 E5.096566 F600.0 ; step 27 node 62->61 DUPLICATE|OVERPRINT
G1 A310.099010 Z17.500000 E5.332444 F600.0 ; step 28 node 61->62 CONTACT_SUPPORT
G1 A288.712871 Z15.000000 E5.477719 F600.0 ; step 29 node 62->54 CONTACT_SUPPORT
G1 A310.099010 Z12.500000 E5.622994 F600.0 ; step 30 node 54->46 CONTACT_SUPPORT
G1 A242.376238 Z12.500000 E5.858872 F600.0 ; step 31 node 46->45 CONTACT_SUPPORT
G1 A263.762376 Z10.000000 E6.004147 F600.0 ; step 32 node 45->37 DUPLICATE|OVERPRINT
G1 A242.376238 Z12.500000 E6.149422 F600.0 ; step 33 node 37->45 CONTACT_SUPPORT
G1 A263.762376 Z15.000000 E6.294698 F600.0 ; step 34 node 45->53 CONTACT_SUPPORT
G1 A192.475248 Z15.000000 E6.542990 F600.0 ; step 35 node 53->52 DUPLICATE|OVERPRINT
G1 A263.762376 Z15.000000 E6.791283 F600.0 ; step 36 node 52->53 CONTACT_SUPPORT
G1 A242.376238 Z17.500000 E6.936558 F600.0 ; step 37 node 53->61 CONTACT_SUPPORT
G1 A263.762376 Z20.000000 E7.081833 F600.0 ; step 38 node 61->69 CONTACT_SUPPORT
G1 A192.475248 Z20.000000 E7.330126 F600.0 ; step 39 node 69->68 UNSUPPORTED
G1 A213.861386 Z17.500000 E7.475401 F600.0 ; step 40 node 68->60 UNSUPPORTED
G1 A146.138614 Z17.500000 E7.711279 F600.0 ; step 41 node 60->59 DUPLICATE|OVERPRINT
G1 A167.524752 Z15.000000 E7.856554 F600.0 ; step 42 node 59->51 UNSUPPORTED
G1 A96.237624 Z15.000000 E8.104847 F600.0 ; step 43 node 51->50 DUPLICATE|OVERPRINT
G1 A117.623762 Z17.500000 E8.250122 F600.0 ; step 44 node 50->58 UNSUPPORTED
G1 A49.900990 Z17.500000 E8.486000 F600.0 ; step 45 node 58->57 DUPLICATE|OVERPRINT
G1 A117.623762 Z17.500000 E8.721878 F600.0 ; step 46 node 57->58 CONTACT_SUPPORT
G1 A96.237624 Z20.000000 E8.867153 F600.0 ; step 47 node 58->66 CONTACT_SUPPORT
G1 A167.524752 Z20.000000 E9.115445 F600.0 ; step 48 node 66->67 UNSUPPORTED
G1 A146.138614 Z17.500000 E9.260721 F600.0 ; step 49 node 67->59 CONTACT_SUPPORT
G1 A213.861386 Z17.500000 E9.496599 F600.0 ; step 50 node 59->60 CONTACT_SUPPORT
G1 A192.475248 Z15.000000 E9.641874 F600.0 ; step 51 node 60->52 CONTACT_SUPPORT
G1 A213.861386 Z12.500000 E9.787149 F600.0 ; step 52 node 52->44 CONTACT_SUPPORT
G1 A192.475248 Z10.000000 E9.932424 F600.0 ; step 53 node 44->36 DUPLICATE|OVERPRINT
G1 A263.762376 Z10.000000 E10.180717 F600.0 ; step 54 node 36->37 CONTACT_SUPPORT
G1 A242.376238 Z7.500000 E10.325992 F600.0 ; step 55 node 37->29 CONTACT_SUPPORT
G1 A263.762376 Z5.000000 E10.471267 F600.0 ; step 56 node 29->21 CONTACT_SUPPORT
G1 A192.475248 Z5.000000 E10.719560 F600.0 ; step 57 node 21->20 UNSUPPORTED
G1 A263.762376 Z5.000000 E10.967852 F600.0 ; step 58 node 20->21 DUPLICATE|OVERPRINT
G1 A242.376238 Z2.500000 E11.113128 F600.0 ; step 59 node 21->13 CONTACT_SUPPORT
G1 A263.762376 Z0.000000 E11.258403 F600.0 ; step 60 node 13->5 CONTACT_SUPPORT
G1 A192.475248 Z0.000000 E11.506695 F600.0 ; step 61 node 5->4 UNSUPPORTED
G1 A213.861386 Z2.500000 E11.651970 F600.0 ; step 62 node 4->12 UNSUPPORTED
G1 A146.138614 Z2.500000 E11.887848 F600.0 ; step 63 node 12->11 DUPLICATE|OVERPRINT
G1 A213.861386 Z2.500000 E12.123726 F600.0 ; step 64 node 11->12 CONTACT_SUPPORT
G1 A192.475248 Z5.000000 E12.269002 F600.0 ; step 65 node 12->20 CONTACT_SUPPORT
G1 A213.861386 Z7.500000 E12.414277 F600.0 ; step 66 node 20->28 CONTACT_SUPPORT
G1 A146.138614 Z7.500000 E12.650155 F600.0 ; step 67 node 28->27 DUPLICATE|OVERPRINT
G1 A213.861386 Z7.500000 E12.886033 F600.0 ; step 68 node 27->28 CONTACT_SUPPORT
G1 A192.475248 Z10.000000 E13.031308 F600.0 ; step 69 node 28->36 CONTACT_SUPPORT
G1 A213.861386 Z12.500000 E13.176583 F600.0 ; step 70 node 36->44 CONTACT_SUPPORT
G1 A146.138614 Z12.500000 E13.412461 F600.0 ; step 71 node 44->43 CONTACT_SUPPORT
G1 A167.524752 Z10.000000 E13.557736 F600.0 ; step 72 node 43->35 DUPLICATE|OVERPRINT
G1 A146.138614 Z7.500000 E13.703011 F600.0 ; step 73 node 35->27 CONTACT_SUPPORT
G1 A167.524752 Z5.000000 E13.848287 F600.0 ; step 74 node 27->19 CONTACT_SUPPORT
G1 A96.237624 Z5.000000 E14.096579 F600.0 ; step 75 node 19->18 UNSUPPORTED
G1 A117.623762 Z2.500000 E14.241854 F600.0 ; step 76 node 18->10 UNSUPPORTED
G1 A49.900990 Z2.500000 E14.477732 F600.0 ; step 77 node 10->9 DUPLICATE|OVERPRINT
G1 A117.623762 Z2.500000 E14.713610 F600.0 ; step 78 node 9->10 CONTACT_SUPPORT
G1 A96.237624 Z0.000000 E14.858885 F600.0 ; step 79 node 10->2 CONTACT_SUPPORT
G1 A167.524752 Z0.000000 E15.107178 F600.0 ; step 80 node 2->3 UNSUPPORTED
G1 A146.138614 Z2.500000 E15.252453 F600.0 ; step 81 node 3->11 CONTACT_SUPPORT
G1 A167.524752 Z5.000000 E15.397728 F600.0 ; step 82 node 11->19 CONTACT_SUPPORT
G1 A96.237624 Z5.000000 E15.646021 F600.0 ; step 83 node 19->18 DUPLICATE|OVERPRINT
G1 A117.623762 Z7.500000 E15.791296 F600.0 ; step 84 node 18->26 CONTACT_SUPPORT
G1 A96.237624 Z10.000000 E15.936571 F600.0 ; step 85 node 26->34 UNSUPPORTED
G1 A117.623762 Z7.500000 E16.081847 F600.0 ; step 86 node 34->26 DUPLICATE|OVERPRINT
G1 A49.900990 Z7.500000 E16.317725 F600.0 ; step 87 node 26->25 CONTACT_SUPPORT
G1 A71.287129 Z5.000000 E16.463000 F600.0 ; step 88 node 25->17 DUPLICATE|OVERPRINT
G1 A0.000000 Z5.000000 E16.711292 F600.0 ; step 89 node 17->16 UNSUPPORTED
G1 A21.386139 Z2.500000 E16.856567 F600.0 ; step 90 node 16->8 UNSUPPORTED
G1 A0.000000 Z0.000000 E17.001843 F600.0 ; step 91 node 8->0 UNSUPPORTED
G1 A71.287129 Z0.000000 E17.250135 F600.0 ; step 92 node 0->1 UNSUPPORTED
G1 A49.900990 Z2.500000 E17.395410 F600.0 ; step 93 node 1->9 CONTACT_SUPPORT
G1 A71.287129 Z5.000000 E17.540686 F600.0 ; step 94 node 9->17 CONTACT_SUPPORT
G1 A49.900990 Z7.500000 E17.685961 F600.0 ; step 95 node 17->25 CONTACT_SUPPORT
G1 A71.287129 Z10.000000 E17.831236 F600.0 ; step 96 node 25->33 CONTACT_SUPPORT
G1 A0.000000 Z10.000000 E18.079529 F600.0 ; step 97 node 33->32 DUPLICATE|OVERPRINT
G1 A71.287129 Z10.000000 E18.327821 F600.0 ; step 98 node 32->33 CONTACT_SUPPORT
G1 A49.900990 Z12.500000 E18.473096 F600.0 ; step 99 node 33->41 CONTACT_SUPPORT
G1 A117.623762 Z12.500000 E18.708974 F600.0 ; step 100 node 41->42 DUPLICATE|OVERPRINT
G1 A96.237624 Z15.000000 E18.854250 F600.0 ; step 101 node 42->50 CONTACT_SUPPORT
G1 A167.524752 Z15.000000 E19.102542 F600.0 ; step 102 node 50->51 CONTACT_SUPPORT
G1 A146.138614 Z12.500000 E19.247817 F600.0 ; step 103 node 51->43 CONTACT_SUPPORT
G1 A167.524752 Z10.000000 E19.393092 F600.0 ; step 104 node 43->35 CONTACT_SUPPORT
G1 A96.237624 Z10.000000 E19.641385 F600.0 ; step 105 node 35->34 CONTACT_SUPPORT
G1 A117.623762 Z12.500000 E19.786660 F600.0 ; step 106 node 34->42 CONTACT_SUPPORT
G1 A49.900990 Z12.500000 E20.022538 F600.0 ; step 107 node 42->41 CONTACT_SUPPORT
G1 A71.287129 Z15.000000 E20.167813 F600.0 ; step 108 node 41->49 CONTACT_SUPPORT
G1 A0.000000 Z15.000000 E20.416106 F600.0 ; step 109 node 49->48 DUPLICATE|OVERPRINT
G1 A71.287129 Z15.000000 E20.664399 F600.0 ; step 110 node 48->49 CONTACT_SUPPORT
G1 A49.900990 Z17.500000 E20.809674 F600.0 ; step 111 node 49->57 CONTACT_SUPPORT
G1 A71.287129 Z20.000000 E20.954949 F600.0 ; step 112 node 57->65 CONTACT_SUPPORT
G1 A0.000000 Z20.000000 E21.203242 F600.0 ; step 113 node 65->64 UNSUPPORTED
G1 A21.386139 Z17.500000 E21.348517 F600.0 ; step 114 node 64->56 UNSUPPORTED
G1 A0.000000 Z15.000000 E21.493792 F600.0 ; step 115 node 56->48 CONTACT_SUPPORT
G1 A21.386139 Z12.500000 E21.639067 F600.0 ; step 116 node 48->40 CONTACT_SUPPORT
G1 A0.000000 Z10.000000 E21.784342 F600.0 ; step 117 node 40->32 CONTACT_SUPPORT
G1 A21.386139 Z7.500000 E21.929617 F600.0 ; step 118 node 32->24 CONTACT_SUPPORT
G1 A0.000000 Z5.000000 E22.074893 F600.0 ; step 119 node 24->16 CONTACT_SUPPORT
; END - no retract commands were emitted
M400
