; Unified support-aware Euler / Open CPP stent toolpath
; pattern = arowhead
; algorithm = EULER_TRAIL
; nodes = 36 ; original_edges = 56
; odd_nodes = 2
; duplicated_edge_traversals = 0
; retract_count = 0
; diameter_mm = 8.000000
; stent_length_mm = 20.000000
; IMPORTANT: Generic rotary A/Z post-processor. Verify axis sign, zero, units,
; extrusion calibration, nozzle-mandrel gap, and controller semantics before use.
G21 ; millimeters
G90 ; absolute positioning
M82 ; absolute extrusion
G92 E0
G0 A0.000000 Z0.000000 ; initial positioning only
G1 A44.999623 Z1.538483 E0.174519 F600.0 ; step 1 node 1->2 UNSUPPORTED
G1 A90.000252 Z6.153862 E0.453063 F600.0 ; step 2 node 2->12 UNSUPPORTED
G1 A134.999874 Z7.692276 E0.627580 F600.0 ; step 3 node 12->13 UNSUPPORTED
G1 A179.999497 Z12.307655 E0.906123 F600.0 ; step 4 node 13->23 UNSUPPORTED
G1 A225.000126 Z13.846138 E1.080645 F600.0 ; step 5 node 23->24 UNSUPPORTED
G1 A269.999748 Z18.461517 E1.359187 F600.0 ; step 6 node 24->34 UNSUPPORTED
G1 A315.000377 Z20.000000 E1.533709 F600.0 ; step 7 node 34->35 UNSUPPORTED
G1 A360.000000 Z18.461517 E1.708227 F600.0 ; step 8 node 35->36 UNSUPPORTED
G1 A315.000377 Z13.846138 E1.986770 F600.0 ; step 9 node 36->26 UNSUPPORTED
G1 A269.999748 Z12.307655 E2.161292 F600.0 ; step 10 node 26->25 UNSUPPORTED
G1 A225.000126 Z7.692276 E2.439835 F600.0 ; step 11 node 25->15 UNSUPPORTED
G1 A179.999497 Z6.153862 E2.614355 F600.0 ; step 12 node 15->14 UNSUPPORTED
G1 A134.999874 Z1.538483 E2.892897 F600.0 ; step 13 node 14->4 UNSUPPORTED
G1 A90.000252 Z0.000000 E3.067416 F600.0 ; step 14 node 4->3 UNSUPPORTED
G1 A44.999623 Z1.538483 E3.241938 F600.0 ; step 15 node 3->2 STRONG_INTERSECTION
G1 A0.000000 Z6.153862 E3.520480 F600.0 ; step 16 node 2->10 STRONG_INTERSECTION
G1 A44.999623 Z7.692276 E3.694997 F600.0 ; step 17 node 10->11 UNSUPPORTED
G1 A90.000252 Z12.307655 E3.973542 F600.0 ; step 18 node 11->21 UNSUPPORTED
G1 A134.999874 Z13.846138 E4.148061 F600.0 ; step 19 node 21->22 UNSUPPORTED
G1 A179.999497 Z18.461517 E4.426603 F600.0 ; step 20 node 22->32 UNSUPPORTED
G1 A225.000126 Z20.000000 E4.601125 F600.0 ; step 21 node 32->33 UNSUPPORTED
G1 A269.999748 Z18.461517 E4.775643 F600.0 ; step 22 node 33->34 STRONG_INTERSECTION
G1 A315.000377 Z13.846138 E5.054188 F600.0 ; step 23 node 34->26 STRONG_INTERSECTION
G1 A360.000000 Z12.307655 E5.228707 F600.0 ; step 24 node 26->27 STRONG_INTERSECTION
G1 A315.000377 Z7.692276 E5.507249 F600.0 ; step 25 node 27->17 UNSUPPORTED
G1 A269.999748 Z6.153862 E5.681769 F600.0 ; step 26 node 17->16 UNSUPPORTED
G1 A225.000126 Z1.538483 E5.960312 F600.0 ; step 27 node 16->6 UNSUPPORTED
G1 A179.999497 Z0.000000 E6.134834 F600.0 ; step 28 node 6->5 UNSUPPORTED
G1 A134.999874 Z1.538483 E6.309352 F600.0 ; step 29 node 5->4 STRONG_INTERSECTION
G1 A90.000252 Z6.153862 E6.587895 F600.0 ; step 30 node 4->12 STRONG_INTERSECTION
G1 A44.999623 Z7.692276 E6.762415 F600.0 ; step 31 node 12->11 STRONG_INTERSECTION
G1 A0.000000 Z12.307655 E7.040958 F600.0 ; step 32 node 11->19 STRONG_INTERSECTION
G1 A44.999623 Z13.846138 E7.215476 F600.0 ; step 33 node 19->20 UNSUPPORTED
G1 A90.000252 Z18.461517 E7.494021 F600.0 ; step 34 node 20->30 UNSUPPORTED
G1 A134.999874 Z20.000000 E7.668540 F600.0 ; step 35 node 30->31 UNSUPPORTED
G1 A179.999497 Z18.461517 E7.843058 F600.0 ; step 36 node 31->32 STRONG_INTERSECTION
G1 A225.000126 Z13.846138 E8.121603 F600.0 ; step 37 node 32->24 STRONG_INTERSECTION
G1 A269.999748 Z12.307655 E8.296121 F600.0 ; step 38 node 24->25 STRONG_INTERSECTION
G1 A315.000377 Z7.692276 E8.574666 F600.0 ; step 39 node 25->17 STRONG_INTERSECTION
G1 A360.000000 Z6.153862 E8.749183 F600.0 ; step 40 node 17->18 STRONG_INTERSECTION
G1 A315.000377 Z1.538483 E9.027726 F600.0 ; step 41 node 18->8 UNSUPPORTED
G1 A269.999748 Z0.000000 E9.202247 F600.0 ; step 42 node 8->7 UNSUPPORTED
G1 A225.000126 Z1.538483 E9.376766 F600.0 ; step 43 node 7->6 STRONG_INTERSECTION
G1 A179.999497 Z6.153862 E9.655311 F600.0 ; step 44 node 6->14 STRONG_INTERSECTION
G1 A134.999874 Z7.692276 E9.829828 F600.0 ; step 45 node 14->13 STRONG_INTERSECTION
G1 A90.000252 Z12.307655 E10.108370 F600.0 ; step 46 node 13->21 STRONG_INTERSECTION
G1 A44.999623 Z13.846138 E10.282892 F600.0 ; step 47 node 21->20 STRONG_INTERSECTION
G1 A0.000000 Z18.461517 E10.561435 F600.0 ; step 48 node 20->28 STRONG_INTERSECTION
G1 A44.999623 Z20.000000 E10.735953 F600.0 ; step 49 node 28->29 UNSUPPORTED
G1 A90.000252 Z18.461517 E10.910475 F600.0 ; step 50 node 29->30 STRONG_INTERSECTION
G1 A134.999874 Z13.846138 E11.189018 F600.0 ; step 51 node 30->22 STRONG_INTERSECTION
G1 A179.999497 Z12.307655 E11.363536 F600.0 ; step 52 node 22->23 STRONG_INTERSECTION
G1 A225.000126 Z7.692276 E11.642081 F600.0 ; step 53 node 23->15 STRONG_INTERSECTION
G1 A269.999748 Z6.153862 E11.816598 F600.0 ; step 54 node 15->16 STRONG_INTERSECTION
G1 A315.000377 Z1.538483 E12.095143 F600.0 ; step 55 node 16->8 STRONG_INTERSECTION
G1 A360.000000 Z0.000000 E12.269661 F600.0 ; step 56 node 8->9 STRONG_INTERSECTION
; END - no retract commands were emitted
M400
