; Unified support-aware Euler / Open CPP stent toolpath
; pattern = honeycomb
; algorithm = OPEN_CHINESE_POSTMAN
; nodes = 45 ; original_edges = 58
; odd_nodes = 30
; duplicated_edge_traversals = 14
; retract_count = 0
; diameter_mm = 8.000000
; stent_length_mm = 20.000000
; IMPORTANT: Generic rotary A/Z post-processor. Verify axis sign, zero, units,
; extrusion calibration, nozzle-mandrel gap, and controller semantics before use.
G21 ; millimeters
G90 ; absolute positioning
M82 ; absolute extrusion
G92 E0
G0 A270.000000 Z18.461538 ; initial positioning only
G1 A315.000000 Z20.000000 E0.174519 F600.0 ; step 1 node 39->44 UNSUPPORTED
G1 A360.000000 Z18.461538 E0.349038 F600.0 ; step 2 node 44->40 UNSUPPORTED
G1 A360.000000 Z15.384615 E0.502547 F600.0 ; step 3 node 40->35 UNSUPPORTED
G1 A315.000000 Z13.846154 E0.677066 F600.0 ; step 4 node 35->30 UNSUPPORTED
G1 A270.000000 Z15.384615 E0.851585 F600.0 ; step 5 node 30->34 DUPLICATE|OVERPRINT
G1 A315.000000 Z13.846154 E1.026105 F600.0 ; step 6 node 34->30 CONTACT_SUPPORT
G1 A315.000000 Z10.769231 E1.179613 F600.0 ; step 7 node 30->26 CONTACT_SUPPORT
G1 A270.000000 Z9.230769 E1.354132 F600.0 ; step 8 node 26->21 DUPLICATE|OVERPRINT
G1 A270.000000 Z6.153846 E1.507640 F600.0 ; step 9 node 21->16 UNSUPPORTED
G1 A315.000000 Z4.615385 E1.682160 F600.0 ; step 10 node 16->12 UNSUPPORTED
G1 A270.000000 Z6.153846 E1.856679 F600.0 ; step 11 node 12->16 DUPLICATE|OVERPRINT
G1 A225.000000 Z4.615385 E2.031198 F600.0 ; step 12 node 16->11 CONTACT_SUPPORT
G1 A225.000000 Z1.538462 E2.184706 F600.0 ; step 13 node 11->7 DUPLICATE|OVERPRINT
G1 A225.000000 Z4.615385 E2.338215 F600.0 ; step 14 node 7->11 CONTACT_SUPPORT
G1 A180.000000 Z6.153846 E2.512734 F600.0 ; step 15 node 11->15 CONTACT_SUPPORT
G1 A180.000000 Z9.230769 E2.666242 F600.0 ; step 16 node 15->20 DUPLICATE|OVERPRINT
G1 A180.000000 Z6.153846 E2.819751 F600.0 ; step 17 node 20->15 CONTACT_SUPPORT
G1 A135.000000 Z4.615385 E2.994270 F600.0 ; step 18 node 15->10 CONTACT_SUPPORT
G1 A135.000000 Z1.538462 E3.147778 F600.0 ; step 19 node 10->6 DUPLICATE|OVERPRINT
G1 A135.000000 Z4.615385 E3.301286 F600.0 ; step 20 node 6->10 CONTACT_SUPPORT
G1 A90.000000 Z6.153846 E3.475806 F600.0 ; step 21 node 10->14 CONTACT_SUPPORT
G1 A45.000000 Z4.615385 E3.650325 F600.0 ; step 22 node 14->9 DUPLICATE|OVERPRINT
G1 A90.000000 Z6.153846 E3.824844 F600.0 ; step 23 node 9->14 CONTACT_SUPPORT
G1 A90.000000 Z9.230769 E3.978353 F600.0 ; step 24 node 14->19 CONTACT_SUPPORT
G1 A135.000000 Z10.769231 E4.152872 F600.0 ; step 25 node 19->24 DUPLICATE|OVERPRINT
G1 A90.000000 Z9.230769 E4.327391 F600.0 ; step 26 node 24->19 CONTACT_SUPPORT
G1 A45.000000 Z10.769231 E4.501910 F600.0 ; step 27 node 19->23 CONTACT_SUPPORT
G1 A45.000000 Z13.846154 E4.655419 F600.0 ; step 28 node 23->27 DUPLICATE|OVERPRINT
G1 A45.000000 Z10.769231 E4.808927 F600.0 ; step 29 node 27->23 CONTACT_SUPPORT
G1 A0.000000 Z9.230769 E4.983446 F600.0 ; step 30 node 23->18 CONTACT_SUPPORT
G1 A0.000000 Z6.153846 E5.136954 F600.0 ; step 31 node 18->13 UNSUPPORTED
G1 A45.000000 Z4.615385 E5.311474 F600.0 ; step 32 node 13->9 CONTACT_SUPPORT
G1 A45.000000 Z1.538462 E5.464982 F600.0 ; step 33 node 9->5 CONTACT_SUPPORT
G1 A0.000000 Z0.000000 E5.639501 F600.0 ; step 34 node 5->0 DUPLICATE|OVERPRINT
G1 A45.000000 Z1.538462 E5.814020 F600.0 ; step 35 node 0->5 CONTACT_SUPPORT
G1 A90.000000 Z0.000000 E5.988540 F600.0 ; step 36 node 5->1 CONTACT_SUPPORT
G1 A135.000000 Z1.538462 E6.163059 F600.0 ; step 37 node 1->6 CONTACT_SUPPORT
G1 A180.000000 Z0.000000 E6.337578 F600.0 ; step 38 node 6->2 CONTACT_SUPPORT
G1 A225.000000 Z1.538462 E6.512097 F600.0 ; step 39 node 2->7 CONTACT_SUPPORT
G1 A270.000000 Z0.000000 E6.686617 F600.0 ; step 40 node 7->3 CONTACT_SUPPORT
G1 A315.000000 Z1.538462 E6.861136 F600.0 ; step 41 node 3->8 UNSUPPORTED
G1 A360.000000 Z0.000000 E7.035655 F600.0 ; step 42 node 8->4 DUPLICATE|OVERPRINT
G1 A315.000000 Z1.538462 E7.210174 F600.0 ; step 43 node 4->8 CONTACT_SUPPORT
G1 A315.000000 Z4.615385 E7.363683 F600.0 ; step 44 node 8->12 CONTACT_SUPPORT
G1 A360.000000 Z6.153846 E7.538202 F600.0 ; step 45 node 12->17 CONTACT_SUPPORT
G1 A360.000000 Z9.230769 E7.691710 F600.0 ; step 46 node 17->22 UNSUPPORTED
G1 A315.000000 Z10.769231 E7.866229 F600.0 ; step 47 node 22->26 CONTACT_SUPPORT
G1 A270.000000 Z9.230769 E8.040749 F600.0 ; step 48 node 26->21 CONTACT_SUPPORT
G1 A225.000000 Z10.769231 E8.215268 F600.0 ; step 49 node 21->25 CONTACT_SUPPORT
G1 A225.000000 Z13.846154 E8.368776 F600.0 ; step 50 node 25->29 DUPLICATE|OVERPRINT
G1 A180.000000 Z15.384615 E8.543296 F600.0 ; step 51 node 29->33 UNSUPPORTED
G1 A180.000000 Z18.461538 E8.696804 F600.0 ; step 52 node 33->38 DUPLICATE|OVERPRINT
G1 A225.000000 Z20.000000 E8.871323 F600.0 ; step 53 node 38->43 UNSUPPORTED
G1 A270.000000 Z18.461538 E9.045842 F600.0 ; step 54 node 43->39 CONTACT_SUPPORT
G1 A270.000000 Z15.384615 E9.199351 F600.0 ; step 55 node 39->34 CONTACT_SUPPORT
G1 A225.000000 Z13.846154 E9.373870 F600.0 ; step 56 node 34->29 CONTACT_SUPPORT
G1 A225.000000 Z10.769231 E9.527378 F600.0 ; step 57 node 29->25 CONTACT_SUPPORT
G1 A180.000000 Z9.230769 E9.701897 F600.0 ; step 58 node 25->20 CONTACT_SUPPORT
G1 A135.000000 Z10.769231 E9.876417 F600.0 ; step 59 node 20->24 CONTACT_SUPPORT
G1 A135.000000 Z13.846154 E10.029925 F600.0 ; step 60 node 24->28 CONTACT_SUPPORT
G1 A90.000000 Z15.384615 E10.204444 F600.0 ; step 61 node 28->32 DUPLICATE|OVERPRINT
G1 A135.000000 Z13.846154 E10.378963 F600.0 ; step 62 node 32->28 CONTACT_SUPPORT
G1 A180.000000 Z15.384615 E10.553483 F600.0 ; step 63 node 28->33 CONTACT_SUPPORT
G1 A180.000000 Z18.461538 E10.706991 F600.0 ; step 64 node 33->38 CONTACT_SUPPORT
G1 A135.000000 Z20.000000 E10.881510 F600.0 ; step 65 node 38->42 CONTACT_SUPPORT
G1 A90.000000 Z18.461538 E11.056029 F600.0 ; step 66 node 42->37 UNSUPPORTED
G1 A90.000000 Z15.384615 E11.209538 F600.0 ; step 67 node 37->32 CONTACT_SUPPORT
G1 A45.000000 Z13.846154 E11.384057 F600.0 ; step 68 node 32->27 CONTACT_SUPPORT
G1 A0.000000 Z15.384615 E11.558576 F600.0 ; step 69 node 27->31 CONTACT_SUPPORT
G1 A0.000000 Z18.461538 E11.712085 F600.0 ; step 70 node 31->36 UNSUPPORTED
G1 A45.000000 Z20.000000 E11.886604 F600.0 ; step 71 node 36->41 UNSUPPORTED
G1 A90.000000 Z18.461538 E12.061123 F600.0 ; step 72 node 41->37 CONTACT_SUPPORT
; END - no retract commands were emitted
M400
